{
  "type": "FeatureCollection",
  "features": [
    {
      "type": "Feature",
      "properties": {
        "norad_id": 33701,
        "name": "FENGYUN 1C DEB",
        "group": "fengyun-1c-debris",
        "lat": 30.451242127211,
        "lon": -68.56178852686853,
        "alt_km": 979.7272341854377,
        "timestamp": "2025-12-07T22:37:43.367178+00:00",
        "meta_object_name": "FENGYUN 1C DEB",
        "meta_object_id": "1999-025DGN",
        "meta_epoch": "2025-11-19T19:29:54.481632",
        "meta_mean_motion": 14.02181122,
        "meta_eccentricity": 0.01331995,
        "meta_inclination": 98.6598,
        "meta_ra_of_asc_node": 279.346,
        "meta_arg_of_pericenter": 252.9525,
        "meta_mean_anomaly": 105.7013,
        "meta_ephemeris_type": 0,
        "meta_classification_type": "U",
        "meta_norad_cat_id": 33701,
        "meta_element_set_no": 999,
        "meta_rev_at_epoch": 90184,
        "meta_bstar": 0.0018411078,
        "meta_mean_motion_dot": 3.003e-05,
        "meta_mean_motion_ddot": 0,
        "tle_line1": "1 33701U 99025DGN 25323.81243613  .00003003  00000+0  18411-2 0  9994",
        "tle_line2": "2 33701  98.6598 279.3460 0133199 252.9525 105.7013 14.02181122901849"
      },
      "geometry": {
        "type": "Point",
        "coordinates": [
          -68.56178852686853,
          30.451242127211
        ]
      }
    },
    {
      "type": "Feature",
      "properties": {
        "norad_id": 33710,
        "name": "FENGYUN 1C DEB",
        "group": "fengyun-1c-debris",
        "lat": -81.01249571125979,
        "lon": 171.845109863036,
        "alt_km": 874.6266304820165,
        "timestamp": "2025-12-07T22:37:43.367189+00:00",
        "meta_object_name": "FENGYUN 1C DEB",
        "meta_object_id": "1999-025DGX",
        "meta_epoch": "2025-12-02T05:15:53.096256",
        "meta_mean_motion": 14.11571356,
        "meta_eccentricity": 0.0056132,
        "meta_inclination": 98.9804,
        "meta_ra_of_asc_node": 75.0562,
        "meta_arg_of_pericenter": 176.3436,
        "meta_mean_anomaly": 183.8157,
        "meta_ephemeris_type": 0,
        "meta_classification_type": "U",
        "meta_norad_cat_id": 33710,
        "meta_element_set_no": 999,
        "meta_rev_at_epoch": 67508,
        "meta_bstar": 0.0015671,
        "meta_mean_motion_dot": 2.844e-05,
        "meta_mean_motion_ddot": 0,
        "tle_line1": "1 33710U 99025DGX 25336.21936454  .00002844  00000+0  15671-2 0  9991",
        "tle_line2": "2 33710  98.9804  75.0562 0056132 176.3436 183.8157 14.11571356675089"
      },
      "geometry": {
        "type": "Point",
        "coordinates": [
          171.845109863036,
          -81.01249571125979
        ]
      }
    },
    {
      "type": "Feature",
      "properties": {
        "norad_id": 33711,
        "name": "FENGYUN 1C DEB",
        "group": "fengyun-1c-debris",
        "lat": -60.02740711662367,
        "lon": -160.89956209156384,
        "alt_km": 968.3461596045936,
        "timestamp": "2025-12-07T22:37:43.367199+00:00",
        "meta_object_name": "FENGYUN 1C DEB",
        "meta_object_id": "1999-025DGY",
        "meta_epoch": "2025-12-07T02:46:03.189216",
        "meta_mean_motion": 14.00903966,
        "meta_eccentricity": 0.00971113,
        "meta_inclination": 99.1838,
        "meta_ra_of_asc_node": 34.5595,
        "meta_arg_of_pericenter": 63.7149,
        "meta_mean_anomaly": 326.3039,
        "meta_ephemeris_type": 0,
        "meta_classification_type": "U",
        "meta_norad_cat_id": 33711,
        "meta_element_set_no": 999,
        "meta_rev_at_epoch": 91853,
        "meta_bstar": 0.00087336553,
        "meta_mean_motion_dot": 1.316e-05,
        "meta_mean_motion_ddot": 0,
        "tle_line1": "1 33711U 99025DGY 25341.11531469  .00001316  00000+0  87337-3 0  9996",
        "tle_line2": "2 33711  99.1838  34.5595 0097111  63.7149 326.3039 14.00903966918535"
      },
      "geometry": {
        "type": "Point",
        "coordinates": [
          -160.89956209156384,
          -60.02740711662367
        ]
      }
    },
    {
      "type": "Feature",
      "properties": {
        "norad_id": 33716,
        "name": "FENGYUN 1C DEB",
        "group": "fengyun-1c-debris",
        "lat": -6.597417365120755,
        "lon": -91.55429939965703,
        "alt_km": 722.711311125865,
        "timestamp": "2025-12-07T22:37:43.367210+00:00",
        "meta_object_name": "FENGYUN 1C DEB",
        "meta_object_id": "1999-025DHD",
        "meta_epoch": "2025-12-06T13:08:11.221440",
        "meta_mean_motion": 14.3265858,
        "meta_eccentricity": 0.00939515,
        "meta_inclination": 98.8733,
        "meta_ra_of_asc_node": 265.9821,
        "meta_arg_of_pericenter": 16.0042,
        "meta_mean_anomaly": 344.4074,
        "meta_ephemeris_type": 0,
        "meta_classification_type": "U",
        "meta_norad_cat_id": 33716,
        "meta_element_set_no": 999,
        "meta_rev_at_epoch": 65069,
        "meta_bstar": 0.00035266212,
        "meta_mean_motion_dot": 9.6e-06,
        "meta_mean_motion_ddot": 0,
        "tle_line1": "1 33716U 99025DHD 25340.54735210  .00000960  00000+0  35266-3 0  9995",
        "tle_line2": "2 33716  98.8733 265.9821 0093951  16.0042 344.4074 14.32658580650697"
      },
      "geometry": {
        "type": "Point",
        "coordinates": [
          -91.55429939965703,
          -6.597417365120755
        ]
      }
    },
    {
      "type": "Feature",
      "properties": {
        "norad_id": 33718,
        "name": "FENGYUN 1C DEB",
        "group": "fengyun-1c-debris",
        "lat": 28.34879815967413,
        "lon": -106.51420187465631,
        "alt_km": 935.4551083064498,
        "timestamp": "2025-12-07T22:37:43.367220+00:00",
        "meta_object_name": "FENGYUN 1C DEB",
        "meta_object_id": "1999-025DHF",
        "meta_epoch": "2025-12-06T23:44:27.157344",
        "meta_mean_motion": 14.08027981,
        "meta_eccentricity": 0.00976837,
        "meta_inclination": 99.66,
        "meta_ra_of_asc_node": 67.1933,
        "meta_arg_of_pericenter": 335.8804,
        "meta_mean_anomaly": 23.7805,
        "meta_ephemeris_type": 0,
        "meta_classification_type": "U",
        "meta_norad_cat_id": 33718,
        "meta_element_set_no": 999,
        "meta_rev_at_epoch": 69105,
        "meta_bstar": 0.0021413958,
        "meta_mean_motion_dot": 3.757e-05,
        "meta_mean_motion_ddot": 0,
        "tle_line1": "1 33718U 99025DHF 25340.98920321  .00003757  00000+0  21414-2 0  9990",
        "tle_line2": "2 33718  99.6600  67.1933 0097683 335.8804  23.7805 14.08027981691053"
      },
      "geometry": {
        "type": "Point",
        "coordinates": [
          -106.51420187465631,
          28.34879815967413
        ]
      }
    },
    {
      "type": "Feature",
      "properties": {
        "norad_id": 33719,
        "name": "FENGYUN 1C DEB",
        "group": "fengyun-1c-debris",
        "lat": 60.66773224482608,
        "lon": -122.11992393906618,
        "alt_km": 787.6695329320428,
        "timestamp": "2025-12-07T22:37:43.367231+00:00",
        "meta_object_name": "FENGYUN 1C DEB",
        "meta_object_id": "1999-025DHG",
        "meta_epoch": "2025-12-06T23:17:50.587296",
        "meta_mean_motion": 14.23442154,
        "meta_eccentricity": 0.0030697,
        "meta_inclination": 98.774,
        "meta_ra_of_asc_node": 40.9579,
        "meta_arg_of_pericenter": 96.394,
        "meta_mean_anomaly": 82.6868,
        "meta_ephemeris_type": 0,
        "meta_classification_type": "U",
        "meta_norad_cat_id": 33719,
        "meta_element_set_no": 999,
        "meta_rev_at_epoch": 91931,
        "meta_bstar": 0.0018535568,
        "meta_mean_motion_dot": 4.188e-05,
        "meta_mean_motion_ddot": 0,
        "tle_line1": "1 33719U 99025DHG 25340.97072439  .00004188  00000+0  18536-2 0  9998",
        "tle_line2": "2 33719  98.7740  40.9579 0030697  96.3940  82.6868 14.23442154919311"
      },
      "geometry": {
        "type": "Point",
        "coordinates": [
          -122.11992393906618,
          60.66773224482608
        ]
      }
    },
    {
      "type": "Feature",
      "properties": {
        "norad_id": 33722,
        "name": "FENGYUN 1C DEB",
        "group": "fengyun-1c-debris",
        "lat": 53.206777346692114,
        "lon": -15.203621763275107,
        "alt_km": 912.2557974697584,
        "timestamp": "2025-12-07T22:37:43.367241+00:00",
        "meta_object_name": "FENGYUN 1C DEB",
        "meta_object_id": "1999-025DHK",
        "meta_epoch": "2025-12-05T07:51:32.196672",
        "meta_mean_motion": 14.21318721,
        "meta_eccentricity": 0.01579882,
        "meta_inclination": 98.5736,
        "meta_ra_of_asc_node": 353.8928,
        "meta_arg_of_pericenter": 273.2558,
        "meta_mean_anomaly": 85.0556,
        "meta_ephemeris_type": 0,
        "meta_classification_type": "U",
        "meta_norad_cat_id": 33722,
        "meta_element_set_no": 999,
        "meta_rev_at_epoch": 92042,
        "meta_bstar": 0.0013828169,
        "meta_mean_motion_dot": 3.379e-05,
        "meta_mean_motion_ddot": 0,
        "tle_line1": "1 33722U 99025DHK 25339.32745598  .00003379  00000+0  13828-2 0  9992",
        "tle_line2": "2 33722  98.5736 353.8928 0157988 273.2558  85.0556 14.21318721920421"
      },
      "geometry": {
        "type": "Point",
        "coordinates": [
          -15.203621763275107,
          53.206777346692114
        ]
      }
    }
  ]
}